YAOGAN-43 01G           
1 60464U 24148G   26068.44348481  .00010133  00000+0  35873-3 0  9993
2 60464  35.0006  62.0013 0007382 306.3543  53.6492 15.28332833 87004
STARLINK-33819          
1 63494U 25071B   26068.52341709  .00014711  00000+0  50798-3 0  9999
2 63494  53.1601 142.8886 0001108  97.8644 262.2482 15.30189397 52693
